{"type": "FeatureCollection", "features": [ {"type": "Feature", "properties": {"norad_id": 29919, "name": "FENGYUN 1C DEB", "group": "fengyun-1c-debris", "lat": 79.86387218619141, "lon": 94.94655646844072, "alt_km": 1004.7450251327064, "timestamp": "2025-12-24T03:53:29.919329+00:00", "meta": {"OBJECT_NAME": "FENGYUN 1C DEB", "OBJECT_ID": "1999-025HR", "EPOCH": "2025-12-23T08:41:55.692096", "MEAN_MOTION": 13.85127462, "ECCENTRICITY": 0.0136938, "INCLINATION": 98.4796, "RA_OF_ASC_NODE": 150.7805, "ARG_OF_PERICENTER": 314.606, "MEAN_ANOMALY": 103.1737, "EPHEMERIS_TYPE": 0, "CLASSIFICATION_TYPE": "U", "NORAD_CAT_ID": 29919, "ELEMENT_SET_NO": 999, "REV_AT_EPOCH": 95682, "BSTAR": 0.00015449, "MEAN_MOTION_DOT": 1.49e-06, "MEAN_MOTION_DDOT": 0}, "tle": {"line1": "1 29919U 99025HR  25357.36245014  .00000149  00000+0  15449-3 0  9991", "line2": "2 29919  98.4796 150.7805 0136938 314.6060 103.1737 13.85127462956822"}}, "geometry": {"type": "Point", "coordinates": [94.94655646844072, 79.86387218619141]}}, {"type": "Feature", "properties": {"norad_id": 29920, "name": "FENGYUN 1C DEB", "group": "fengyun-1c-debris", "lat": 2.3690903606867884, "lon": -148.5625712123369, "alt_km": 919.5677487661214, "timestamp": "2025-12-24T03:53:29.919351+00:00", "meta": {"OBJECT_NAME": "FENGYUN 1C DEB", "OBJECT_ID": "1999-025HS", "EPOCH": "2025-12-21T12:34:58.800288", "MEAN_MOTION": 14.03693596, "ECCENTRICITY": 0.01249732, "INCLINATION": 98.3912, "RA_OF_ASC_NODE": 209.3515, "ARG_OF_PERICENTER": 255.9523, "MEAN_ANOMALY": 102.7727, "EPHEMERIS_TYPE": 0, "CLASSIFICATION_TYPE": "U", "NORAD_CAT_ID": 29920, "ELEMENT_SET_NO": 999, "REV_AT_EPOCH": 96411, "BSTAR": 0.0011522683, "MEAN_MOTION_DOT": 1.901e-05, "MEAN_MOTION_DDOT": 0}, "tle": {"line1": "1 29920U 99025HS  25355.52429167  .00001901  00000+0  11523-2 0  9997", "line2": "2 29920  98.3912 209.3515 0124973 255.9523 102.7727 14.03693596964111"}}, "geometry": {"type": "Point", "coordinates": [-148.5625712123369, 2.3690903606867884]}}, {"type": "Feature", "properties": {"norad_id": 29921, "name": "FENGYUN 1C DEB", "group": "fengyun-1c-debris", "lat": -41.30547124858343, "lon": 11.759780106465941, "alt_km": 871.2899294585523, "timestamp": "2025-12-24T03:53:29.919362+00:00", "meta": {"OBJECT_NAME": "FENGYUN 1C DEB", "OBJECT_ID": "1999-025HT", "EPOCH": "2025-12-22T23:22:41.507328", "MEAN_MOTION": 14.06654926, "ECCENTRICITY": 0.0046115, "INCLINATION": 98.7867, "RA_OF_ASC_NODE": 2.7951, "ARG_OF_PERICENTER": 41.3461, "MEAN_ANOMALY": 24.409, "EPHEMERIS_TYPE": 0, "CLASSIFICATION_TYPE": "U", "NORAD_CAT_ID": 29921, "ELEMENT_SET_NO": 999, "REV_AT_EPOCH": 97020, "BSTAR": 0.00042357877, "MEAN_MOTION_DOT": 6.67e-06, "MEAN_MOTION_DDOT": 0}, "tle": {"line1": "1 29921U 99025HT  25356.97409152  .00000667  00000+0  42358-3 0  9999", "line2": "2 29921  98.7867   2.7951 0046115  41.3461  24.4090 14.06654926970200"}}, "geometry": {"type": "Point", "coordinates": [11.759780106465941, -41.30547124858343]}}, {"type": "Feature", "properties": {"norad_id": 29922, "name": "FENGYUN 1C DEB", "group": "fengyun-1c-debris", "lat": 44.25684169971571, "lon": -115.41522824655613, "alt_km": 957.9134937038589, "timestamp": "2025-12-24T03:53:29.919372+00:00", "meta": {"OBJECT_NAME": "FENGYUN 1C DEB", "OBJECT_ID": "1999-025HU", "EPOCH": "2025-12-23T03:12:39.969216", "MEAN_MOTION": 13.98583064, "ECCENTRICITY": 0.00925811, "INCLINATION": 99.1335, "RA_OF_ASC_NODE": 54.5422, "ARG_OF_PERICENTER": 338.2875, "MEAN_ANOMALY": 21.4374, "EPHEMERIS_TYPE": 0, "CLASSIFICATION_TYPE": "U", "NORAD_CAT_ID": 29922, "ELEMENT_SET_NO": 999, "REV_AT_EPOCH": 96586, "BSTAR": 7.9218111e-05, "MEAN_MOTION_DOT": 7.3e-07, "MEAN_MOTION_DDOT": 0}, "tle": {"line1": "1 29922U 99025HU  25357.13379594  .00000073  00000+0  79218-4 0  9992", "line2": "2 29922  99.1335  54.5422 0092581 338.2875  21.4374 13.98583064965861"}}, "geometry": {"type": "Point", "coordinates": [-115.41522824655613, 44.25684169971571]}}, {"type": "Feature", "properties": {"norad_id": 29923, "name": "FENGYUN 1C DEB", "group": "fengyun-1c-debris", "lat": -63.480033593666576, "lon": 168.28977722719662, "alt_km": 857.041867140525, "timestamp": "2025-12-24T03:53:29.919383+00:00", "meta": {"OBJECT_NAME": "FENGYUN 1C DEB", "OBJECT_ID": "1999-025HV", "EPOCH": "2025-12-23T19:05:50.335872", "MEAN_MOTION": 14.13911282, "ECCENTRICITY": 0.0018009, "INCLINATION": 98.6879, "RA_OF_ASC_NODE": 5.7765, "ARG_OF_PERICENTER": 138.4909, "MEAN_ANOMALY": 41.99, "EPHEMERIS_TYPE": 0, "CLASSIFICATION_TYPE": "U", "NORAD_CAT_ID": 29923, "ELEMENT_SET_NO": 999, "REV_AT_EPOCH": 97431, "BSTAR": 0.00041134, "MEAN_MOTION_DOT": 7.39e-06, "MEAN_MOTION_DDOT": 0}, "tle": {"line1": "1 29923U 99025HV  25357.79572148  .00000739  00000+0  41134-3 0  9999", "line2": "2 29923  98.6879   5.7765 0018009 138.4909  41.9900 14.13911282974315"}}, "geometry": {"type": "Point", "coordinates": [168.28977722719662, -63.480033593666576]}}, {"type": "Feature", "properties": {"norad_id": 29924, "name": "FENGYUN 1C DEB", "group": "fengyun-1c-debris", "lat": 12.952826605468829, "lon": 8.73871479858921, "alt_km": 880.4570424094309, "timestamp": "2025-12-24T03:53:29.919393+00:00", "meta": {"OBJECT_NAME": "FENGYUN 1C DEB", "OBJECT_ID": "1999-025HW", "EPOCH": "2025-12-23T20:08:34.914336", "MEAN_MOTION": 14.08893331, "ECCENTRICITY": 0.0026181, "INCLINATION": 98.7338, "RA_OF_ASC_NODE": 10.4521, "ARG_OF_PERICENTER": 225.21, "MEAN_ANOMALY": 311.2209, "EPHEMERIS_TYPE": 0, "CLASSIFICATION_TYPE": "U", "NORAD_CAT_ID": 29924, "ELEMENT_SET_NO": 999, "REV_AT_EPOCH": 97364, "BSTAR": 4.255e-05, "MEAN_MOTION_DOT": 3.1e-07, "MEAN_MOTION_DDOT": 0}, "tle": {"line1": "1 29924U 99025HW  25357.83929299  .00000031  00000+0  42550-4 0  9997", "line2": "2 29924  98.7338  10.4521 0026181 225.2100 311.2209 14.08893331973646"}}, "geometry": {"type": "Point", "coordinates": [8.73871479858921, 12.952826605468829]}}, {"type": "Feature", "properties": {"norad_id": 29926, "name": "FENGYUN 1C DEB", "group": "fengyun-1c-debris", "lat": 15.115083822600765, "lon": 168.84223815695208, "alt_km": 811.9553176282834, "timestamp": "2025-12-24T03:53:29.919403+00:00", "meta": {"OBJECT_NAME": "FENGYUN 1C DEB", "OBJECT_ID": "1999-025HY", "EPOCH": "2025-12-23T05:38:47.258016", "MEAN_MOTION": 14.33419487, "ECCENTRICITY": 0.02478969, "INCLINATION": 98.284, "RA_OF_ASC_NODE": 345.6988, "ARG_OF_PERICENTER": 268.7804, "MEAN_ANOMALY": 158.385, "EPHEMERIS_TYPE": 0, "CLASSIFICATION_TYPE": "U", "NORAD_CAT_ID": 29926, "ELEMENT_SET_NO": 999, "REV_AT_EPOCH": 98731, "BSTAR": 0.00027732605, "MEAN_MOTION_DOT": 1.026e-05, "MEAN_MOTION_DDOT": 0}, "tle": {"line1": "1 29926U 99025HY  25357.23526919  .00001026  00000+0  27733-3 0  9995", "line2": "2 29926  98.2840 345.6988 0247896 268.7804 158.3850 14.33419487987317"}}, "geometry": {"type": "Point", "coordinates": [168.84223815695208, 15.115083822600765]}}, {"type": "Feature", "properties": {"norad_id": 29927, "name": "FENGYUN 1C DEB", "group": "fengyun-1c-debris", "lat": -15.208324530549566, "lon": -159.00252999540115, "alt_km": 638.0685720375159, "timestamp": "2025-12-24T03:53:29.919414+00:00", "meta": {"OBJECT_NAME": "FENGYUN 1C DEB", "OBJECT_ID": "1999-025HZ", "EPOCH": "2025-12-23T01:12:21.948192", "MEAN_MOTION": 14.7491707, "ECCENTRICITY": 0.00180346, "INCLINATION": 99.0822, "RA_OF_ASC_NODE": 22.2437, "ARG_OF_PERICENTER": 179.037, "MEAN_ANOMALY": 235.7049, "EPHEMERIS_TYPE": 0, "CLASSIFICATION_TYPE": "U", "NORAD_CAT_ID": 29927, "ELEMENT_SET_NO": 999, "REV_AT_EPOCH": 98799, "BSTAR": 0.0030102082, "MEAN_MOTION_DOT": 0.00020258, "MEAN_MOTION_DDOT": 0}, "tle": {"line1": "1 29927U 99025HZ  25357.05025403  .00020258  00000+0  30102-2 0  9999", "line2": "2 29927  99.0822  22.2437 0018034 179.0370 235.7049 14.74917070987996"}}, "geometry": {"type": "Point", "coordinates": [-159.00252999540115, -15.208324530549566]}}, {"type": "Feature", "properties": {"norad_id": 29928, "name": "FENGYUN 1C DEB", "group": "fengyun-1c-debris", "lat": -14.474475499119533, "lon": 25.231955673654973, "alt_km": 933.447835955375, "timestamp": "2025-12-24T03:53:29.919425+00:00", "meta": {"OBJECT_NAME": "FENGYUN 1C DEB", "OBJECT_ID": "1999-025JA", "EPOCH": "2025-12-23T00:25:33.174048", "MEAN_MOTION": 13.88101444, "ECCENTRICITY": 0.01430669, "INCLINATION": 99.5836, "RA_OF_ASC_NODE": 21.5576, "ARG_OF_PERICENTER": 75.8051, "MEAN_ANOMALY": 315.5119, "EPHEMERIS_TYPE": 0, "CLASSIFICATION_TYPE": "U", "NORAD_CAT_ID": 29928, "ELEMENT_SET_NO": 999, "REV_AT_EPOCH": 95634, "BSTAR": 0.00062852807, "MEAN_MOTION_DOT": 7.67e-06, "MEAN_MOTION_DDOT": 0}, "tle": {"line1": "1 29928U 99025JA  25357.01774507  .00000767  00000+0  62853-3 0  9994", "line2": "2 29928  99.5836  21.5576 0143066  75.8051 315.5119 13.88101444956340"}}, "geometry": {"type": "Point", "coordinates": [25.231955673654973, -14.474475499119533]}}, {"type": "Feature", "properties": {"norad_id": 29929, "name": "FENGYUN 1C DEB", "group": "fengyun-1c-debris", "lat": 33.03340305031461, "lon": -88.88041129648263, "alt_km": 919.5098198885662, "timestamp": "2025-12-24T03:53:29.919435+00:00", "meta": {"OBJECT_NAME": "FENGYUN 1C DEB", "OBJECT_ID": "1999-025JB", "EPOCH": "2025-12-23T00:23:24.546048", "MEAN_MOTION": 14.01390252, "ECCENTRICITY": 0.01317182, "INCLINATION": 98.6246, "RA_OF_ASC_NODE": 275.6999, "ARG_OF_PERICENTER": 147.3905, "MEAN_ANOMALY": 229.7336, "EPHEMERIS_TYPE": 0, "CLASSIFICATION_TYPE": "U", "NORAD_CAT_ID": 29929, "ELEMENT_SET_NO": 999, "REV_AT_EPOCH": 96100, "BSTAR": 0.00093672522, "MEAN_MOTION_DOT": 1.484e-05, "MEAN_MOTION_DDOT": 0}, "tle": {"line1": "1 29929U 99025JB  25357.01625632  .00001484  00000+0  93673-3 0  9990", "line2": "2 29929  98.6246 275.6999 0131718 147.3905 229.7336 14.01390252961000"}}, "geometry": {"type": "Point", "coordinates": [-88.88041129648263, 33.03340305031461]}}]}